2023-104A               
1 57424U 23104A   26065.78279804  .00015492  00000+0  48200-3 0  9993
2 57424  97.2792 135.5625 0009333 122.1915 238.0234 15.33350758146346
STARLINK-34878          
1 65334U 25189M   26068.65479191  .00019312  00000+0  66262-3 0  9990
2 65334  53.1597 206.7521 0001072  50.6921 309.4175 15.30192129 31106
